STARLINK-6342           
1 56770U 23078D   26080.95078478  .00000418  00000+0  42818-4 0  9998
2 56770  69.9997 333.5476 0002803 266.9216  93.1622 14.98341904154020
STARLINK-6275           
1 56772U 23078F   26080.94644291  .00000895  00000+0  82764-4 0  9994
2 56772  69.9999 333.5315 0002841 274.8777  85.2057 14.98344037154022
STARLINK-6296           
1 56773U 23078G   26080.91655307  .00000343  00000+0  36559-4 0  9991
2 56773  69.9984 273.7948 0002708 271.1789  88.9060 14.98334543155496
STARLINK-6190           
1 56774U 23078H   26080.90057339 -.00000647  00000+0 -46440-4 0  9991
2 56774  69.9993 333.7689 0003000 277.3349  82.7469 14.98330797154011
STARLINK-6292           
1 56775U 23078J   26080.84562525 -.00000420  00000+0 -27370-4 0  9993
2 56775  69.9989 273.9478 0002730 265.2495  94.8352 14.98329326155488
STARLINK-6274           
1 56776U 23078K   26080.93765233  .00000032  00000+0  10442-4 0  9994
2 56776  69.9982 293.7559 0002793 269.4314  90.6525 14.98334413155004
STARLINK-5582           
1 56777U 23078L   26080.89617655  .00001444  00000+0  12877-3 0  9995
2 56777  69.9985 313.8830 0002374 271.7904  88.2983 14.98330810154502
STARLINK-6304           
1 56778U 23078M   26080.93347596  .00000322  00000+0  34817-4 0  9998
2 56778  69.9980 293.7409 0002829 268.9901  91.0934 14.98334448155001
STARLINK-6231           
1 56779U 23078N   26080.84167176  .00000480  00000+0  48024-4 0  9993
2 56779  69.9978 293.8203 0002703 274.0504  86.0346 14.98342351154989
STARLINK-5963           
1 56780U 23078P   26080.89212194  .00000576  00000+0  56050-4 0  9995
2 56780  69.9986 313.4886 0002681 270.1642  89.9209 14.98335948154514
STARLINK-5989           
1 56781U 23078Q   26080.94204401  .00000191  00000+0  23782-4 0  9993
2 56781  69.9986 313.6398 0002487 273.6784  86.4090 14.98338402154512
STARLINK-6352           
1 56782U 23078R   26080.92929993  .00000699  00000+0  66382-4 0  9998
2 56782  69.9978 293.7261 0002913 270.0630  90.0195 14.98336300155003
STARLINK-6357           
1 56783U 23078S   26080.92094648 -.00004159  00000+0 -34083-3 0  9998
2 56783  69.9978 293.6973 0003101 271.6873  88.3931 14.98346530155003
STARLINK-6354           
1 56784U 23078T   26080.92514843  .00000158  00000+0  21043-4 0  9999
2 56784  69.9983 293.7112 0002397 263.4654  96.6233 14.98332862155008
STARLINK-5931           
1 56785U 23078U   26080.81687537 -.00000186  00000+0 -78032-5 0  9993
2 56785  69.9986 314.0066 0002934 270.5010  89.5813 14.98335820155180
STARLINK-6341           
1 56786U 23078V   26080.91677909  .00000310  00000+0  33804-4 0  9991
2 56786  69.9978 293.6828 0002773 270.0581  90.0260 14.98336667155003
