[{"OBJECT_NAME":"STARLINK-6342","OBJECT_ID":"2023-078D","EPOCH":"2026-03-21T22:49:07.804992","MEAN_MOTION":14.98341904,"ECCENTRICITY":0.00028036,"INCLINATION":69.9997,"RA_OF_ASC_NODE":333.5476,"ARG_OF_PERICENTER":266.9216,"MEAN_ANOMALY":93.1622,"EPHEMERIS_TYPE":0,"CLASSIFICATION_TYPE":"U","NORAD_CAT_ID":56770,"ELEMENT_SET_NO":999,"REV_AT_EPOCH":15402,"BSTAR":4.281792e-5,"MEAN_MOTION_DOT":4.18e-6,"MEAN_MOTION_DDOT":0},{"OBJECT_NAME":"STARLINK-6275","OBJECT_ID":"2023-078F","EPOCH":"2026-03-21T22:42:52.667424","MEAN_MOTION":14.98344037,"ECCENTRICITY":0.00028415,"INCLINATION":69.9999,"RA_OF_ASC_NODE":333.5315,"ARG_OF_PERICENTER":274.8777,"MEAN_ANOMALY":85.2057,"EPHEMERIS_TYPE":0,"CLASSIFICATION_TYPE":"U","NORAD_CAT_ID":56772,"ELEMENT_SET_NO":999,"REV_AT_EPOCH":15402,"BSTAR":8.2764081e-5,"MEAN_MOTION_DOT":8.95e-6,"MEAN_MOTION_DDOT":0},{"OBJECT_NAME":"STARLINK-6296","OBJECT_ID":"2023-078G","EPOCH":"2026-03-21T21:59:50.185248","MEAN_MOTION":14.98334543,"ECCENTRICITY":0.00027088,"INCLINATION":69.9984,"RA_OF_ASC_NODE":273.7948,"ARG_OF_PERICENTER":271.1789,"MEAN_ANOMALY":88.906,"EPHEMERIS_TYPE":0,"CLASSIFICATION_TYPE":"U","NORAD_CAT_ID":56773,"ELEMENT_SET_NO":999,"REV_AT_EPOCH":15549,"BSTAR":3.6559086e-5,"MEAN_MOTION_DOT":3.43e-6,"MEAN_MOTION_DDOT":0},{"OBJECT_NAME":"STARLINK-6190","OBJECT_ID":"2023-078H","EPOCH":"2026-03-21T21:36:49.540896","MEAN_MOTION":14.98330797,"ECCENTRICITY":0.00030002,"INCLINATION":69.9993,"RA_OF_ASC_NODE":333.7689,"ARG_OF_PERICENTER":277.3349,"MEAN_ANOMALY":82.7469,"EPHEMERIS_TYPE":0,"CLASSIFICATION_TYPE":"U","NORAD_CAT_ID":56774,"ELEMENT_SET_NO":999,"REV_AT_EPOCH":15401,"BSTAR":-4.6439683e-5,"MEAN_MOTION_DOT":-6.47e-6,"MEAN_MOTION_DDOT":0},{"OBJECT_NAME":"STARLINK-6292","OBJECT_ID":"2023-078J","EPOCH":"2026-03-21T20:17:42.021600","MEAN_MOTION":14.98329326,"ECCENTRICITY":0.00027305,"INCLINATION":69.9989,"RA_OF_ASC_NODE":273.9478,"ARG_OF_PERICENTER":265.2495,"MEAN_ANOMALY":94.8352,"EPHEMERIS_TYPE":0,"CLASSIFICATION_TYPE":"U","NORAD_CAT_ID":56775,"ELEMENT_SET_NO":999,"REV_AT_EPOCH":15548,"BSTAR":-2.7370351e-5,"MEAN_MOTION_DOT":-4.2e-6,"MEAN_MOTION_DDOT":0},{"OBJECT_NAME":"STARLINK-6274","OBJECT_ID":"2023-078K","EPOCH":"2026-03-21T22:30:13.161312","MEAN_MOTION":14.98334413,"ECCENTRICITY":0.00027937,"INCLINATION":69.9982,"RA_OF_ASC_NODE":293.7559,"ARG_OF_PERICENTER":269.4314,"MEAN_ANOMALY":90.6525,"EPHEMERIS_TYPE":0,"CLASSIFICATION_TYPE":"U","NORAD_CAT_ID":56776,"ELEMENT_SET_NO":999,"REV_AT_EPOCH":15500,"BSTAR":1.0442264e-5,"MEAN_MOTION_DOT":3.2e-7,"MEAN_MOTION_DDOT":0},{"OBJECT_NAME":"STARLINK-5582","OBJECT_ID":"2023-078L","EPOCH":"2026-03-21T21:30:29.653920","MEAN_MOTION":14.9833081,"ECCENTRICITY":0.00023741,"INCLINATION":69.9985,"RA_OF_ASC_NODE":313.883,"ARG_OF_PERICENTER":271.7904,"MEAN_ANOMALY":88.2983,"EPHEMERIS_TYPE":0,"CLASSIFICATION_TYPE":"U","NORAD_CAT_ID":56777,"ELEMENT_SET_NO":999,"REV_AT_EPOCH":15450,"BSTAR":0.00012877249,"MEAN_MOTION_DOT":1.444e-5,"MEAN_MOTION_DDOT":0},{"OBJECT_NAME":"STARLINK-6304","OBJECT_ID":"2023-078M","EPOCH":"2026-03-21T22:24:12.322944","MEAN_MOTION":14.98334448,"ECCENTRICITY":0.00028293,"INCLINATION":69.998,"RA_OF_ASC_NODE":293.7409,"ARG_OF_PERICENTER":268.9901,"MEAN_ANOMALY":91.0934,"EPHEMERIS_TYPE":0,"CLASSIFICATION_TYPE":"U","NORAD_CAT_ID":56778,"ELEMENT_SET_NO":999,"REV_AT_EPOCH":15500,"BSTAR":3.4816825e-5,"MEAN_MOTION_DOT":3.22e-6,"MEAN_MOTION_DDOT":0},{"OBJECT_NAME":"STARLINK-6231","OBJECT_ID":"2023-078N","EPOCH":"2026-03-21T20:12:00.440064","MEAN_MOTION":14.98342351,"ECCENTRICITY":0.00027039,"INCLINATION":69.9978,"RA_OF_ASC_NODE":293.8203,"ARG_OF_PERICENTER":274.0504,"MEAN_ANOMALY":86.0346,"EPHEMERIS_TYPE":0,"CLASSIFICATION_TYPE":"U","NORAD_CAT_ID":56779,"ELEMENT_SET_NO":999,"REV_AT_EPOCH":15498,"BSTAR":4.8023983e-5,"MEAN_MOTION_DOT":4.8e-6,"MEAN_MOTION_DDOT":0},{"OBJECT_NAME":"STARLINK-5963","OBJECT_ID":"2023-078P","EPOCH":"2026-03-21T21:24:39.335616","MEAN_MOTION":14.98335948,"ECCENTRICITY":0.00026816,"INCLINATION":69.9986,"RA_OF_ASC_NODE":313.4886,"ARG_OF_PERICENTER":270.1642,"MEAN_ANOMALY":89.9209,"EPHEMERIS_TYPE":0,"CLASSIFICATION_TYPE":"U","NORAD_CAT_ID":56780,"ELEMENT_SET_NO":999,"REV_AT_EPOCH":15451,"BSTAR":5.6050435e-5,"MEAN_MOTION_DOT":5.76e-6,"MEAN_MOTION_DDOT":0},{"OBJECT_NAME":"STARLINK-5989","OBJECT_ID":"2023-078Q","EPOCH":"2026-03-21T22:36:32.602464","MEAN_MOTION":14.98338402,"ECCENTRICITY":0.00024873,"INCLINATION":69.9986,"RA_OF_ASC_NODE":313.6398,"ARG_OF_PERICENTER":273.6784,"MEAN_ANOMALY":86.409,"EPHEMERIS_TYPE":0,"CLASSIFICATION_TYPE":"U","NORAD_CAT_ID":56781,"ELEMENT_SET_NO":999,"REV_AT_EPOCH":15451,"BSTAR":2.3781868e-5,"MEAN_MOTION_DOT":1.91e-6,"MEAN_MOTION_DDOT":0},{"OBJECT_NAME":"STARLINK-6352","OBJECT_ID":"2023-078R","EPOCH":"2026-03-21T22:18:11.513952","MEAN_MOTION":14.983363,"ECCENTRICITY":0.00029136,"INCLINATION":69.9978,"RA_OF_ASC_NODE":293.7261,"ARG_OF_PERICENTER":270.063,"MEAN_ANOMALY":90.0195,"EPHEMERIS_TYPE":0,"CLASSIFICATION_TYPE":"U","NORAD_CAT_ID":56782,"ELEMENT_SET_NO":999,"REV_AT_EPOCH":15500,"BSTAR":6.6382239e-5,"MEAN_MOTION_DOT":6.99e-6,"MEAN_MOTION_DDOT":0},{"OBJECT_NAME":"STARLINK-6357","OBJECT_ID":"2023-078S","EPOCH":"2026-03-21T22:06:09.775872","MEAN_MOTION":14.9834653,"ECCENTRICITY":0.00031011,"INCLINATION":69.9978,"RA_OF_ASC_NODE":293.6973,"ARG_OF_PERICENTER":271.6873,"MEAN_ANOMALY":88.3931,"EPHEMERIS_TYPE":0,"CLASSIFICATION_TYPE":"U","NORAD_CAT_ID":56783,"ELEMENT_SET_NO":999,"REV_AT_EPOCH":15500,"BSTAR":-0.00034082936,"MEAN_MOTION_DOT":-4.159e-5,"MEAN_MOTION_DDOT":0},{"OBJECT_NAME":"STARLINK-6354","OBJECT_ID":"2023-078T","EPOCH":"2026-03-21T22:12:12.824352","MEAN_MOTION":14.98332862,"ECCENTRICITY":0.00023975,"INCLINATION":69.9983,"RA_OF_ASC_NODE":293.7112,"ARG_OF_PERICENTER":263.4654,"MEAN_ANOMALY":96.6233,"EPHEMERIS_TYPE":0,"CLASSIFICATION_TYPE":"U","NORAD_CAT_ID":56784,"ELEMENT_SET_NO":999,"REV_AT_EPOCH":15500,"BSTAR":2.1043045e-5,"MEAN_MOTION_DOT":1.58e-6,"MEAN_MOTION_DDOT":0},{"OBJECT_NAME":"STARLINK-5931","OBJECT_ID":"2023-078U","EPOCH":"2026-03-21T19:36:18.031968","MEAN_MOTION":14.9833582,"ECCENTRICITY":0.00029344,"INCLINATION":69.9986,"RA_OF_ASC_NODE":314.0066,"ARG_OF_PERICENTER":270.501,"MEAN_ANOMALY":89.5813,"EPHEMERIS_TYPE":0,"CLASSIFICATION_TYPE":"U","NORAD_CAT_ID":56785,"ELEMENT_SET_NO":999,"REV_AT_EPOCH":15518,"BSTAR":-7.80316e-6,"MEAN_MOTION_DOT":-1.86e-6,"MEAN_MOTION_DDOT":0},{"OBJECT_NAME":"STARLINK-6341","OBJECT_ID":"2023-078V","EPOCH":"2026-03-21T22:00:09.713376","MEAN_MOTION":14.98336667,"ECCENTRICITY":0.00027735,"INCLINATION":69.9978,"RA_OF_ASC_NODE":293.6828,"ARG_OF_PERICENTER":270.0581,"MEAN_ANOMALY":90.026,"EPHEMERIS_TYPE":0,"CLASSIFICATION_TYPE":"U","NORAD_CAT_ID":56786,"ELEMENT_SET_NO":999,"REV_AT_EPOCH":15500,"BSTAR":3.3804221e-5,"MEAN_MOTION_DOT":3.1e-6,"MEAN_MOTION_DDOT":0}]
